1 44272U 19029AP  20031.91667824 +.00146258 +00000-0 +82436-2 0  9990
2 44272 052.9976 114.1600 0001207 063.3020 034.9354 15.12102070001802
1 44272U 19029AP  20032.00001157  .00267949  00000-0  14846-1 0  9992
2 44272  52.9977 113.7816 0001197  62.5160 129.6215 15.12068217 38285
1 44272U 19029AP  20032.25001157  .00224004  00000-0  12485-1 0  9991
2 44272  52.9977 112.6477 0001207  70.7836  43.0176 15.12085852 38323
1 44272U 19029AP  20032.58334491  .00021341  00000-0  12382-2 0  9993
2 44272  52.9979 111.1377 0001268  60.1231  69.2462 15.12114683 38375
1 44272U 19029AP  20033.25001157  .00353852  00000-0  19360-1 0  9995
2 44272  52.9983 108.1128 0001232  67.4606  93.0451 15.12074743 38473
1 44272U 19029AP  20033.50001157 -.00008949 +00000-0 -49679-3 0  9997
2 44272 052.9982 106.9804 0001266 059.9618 022.2259 15.12141114001832
1 44272U 19029AP  20033.58334491  .00032238  00000-0  18588-2 0  9995
2 44272  52.9984 106.6028 0001274  57.2856 118.7921 15.12116373 38525
1 44272U 19029AP  20033.91667824 +.00060543 +00000-0 +34611-2 0  9996
2 44272 052.9985 105.0898 0001167 061.3134 130.3320 15.12127857001768
1 44272U 19029AP  20034.08334491  .00495649  00000-0  26897-1 0  9991
2 44272  52.9983 104.3334 0001244  68.0740 311.3791 15.12019951 38595
1 44272U 19029AP  20034.25001157 +.00271262 +00000-0 +15012-1 0  9990
2 44272 052.9987 103.5781 0001222 065.8924 141.3301 15.12093057001790
1 44272U 19029AP  20034.58334491  .00037896  00000-0  21802-2 0  9994
2 44272  52.9987 102.0680 0001261  55.1566 167.6502 15.12119127 38677
1 44272U 19029AP  20034.91667824 +.00095611 +00000-0 +54325-2 0  9995
2 44272 052.9987 100.5549 0001228 061.9190 176.4577 15.12107005001790
1 44272U 19029AP  20035.25001157  .00281639  00000-0  15574-1 0  9993
2 44272  52.9987  99.0435 0001332  67.9274 185.9899 15.12067237 38773
1 44272U 19029AP  20035.58334491  .00035825  00000-0  20641-2 0  9995
2 44272  52.9987  97.5334 0001338  57.1342 212.3320 15.12091935 38829
1 44272U 19029AP  20036.25001157  .00066086  00000-0  37756-2 0  9998
2 44272  52.9986  94.5091 0001235  67.6679 232.8795 15.12108219 38928
1 44272U 19029AP  20036.50001157  .00012555  00000-0  73658-3 0  9990
2 44272  52.9984  93.3768 0001321  58.0805 164.1386 15.12104352 38966
1 44272U 19029AP  20036.91667824 +.00144155 +00000-0 +81325-2 0  9995
2 44272 052.9982 091.4859 0001246 064.5464 267.1108 15.12080795001750
1 44272U 19029AP  20037.58334491 +.00054709 +00000-0 +31321-2 0  9996
2 44272 052.9978 088.4644 0001444 059.2199 303.5936 15.12123827001779
1 44272U 19029AP  20037.83334491 -.00024008  00000-0 -13636-2 0  9994
2 44272  52.9977  87.3294 0001361  63.1973 221.2997 15.12159597 39169
1 44272U 19029AP  20037.91667824 +.00141209 +00000-0 +79631-2 0  9990
2 44272 052.9977 086.9510 0001366 067.3004 311.1053 15.12111642001778
1 44272U 19029AP  20038.58334491 +.00061805 +00000-0 +35354-2 0  9992
2 44272 052.9973 083.9295 0001586 060.2875 349.2732 15.12096030001772
1 44272U 19029AP  20038.91667824  .00239702  00000-0  13337-1 0  9997
2 44272  52.9973  82.4160 0001522  68.3307 356.7930 15.12065166 39327
1 44272U 19029AP  20039.25001157 -.00001811  00000-0 -86808-4 0  9992
2 44272  52.9972  80.9050 0001580  66.6818  13.9848 15.12133451 39377
1 44272U 19029AP  20039.58334491 +.00037411 +00000-0 +21534-2 0  9994
2 44272 052.9970 079.3943 0001641 058.0445 038.1954 15.12106397001811
1 44272U 19029AP  20039.91667824  .00432541  00000-0  23425-1 0  9993
2 44272  52.9971  77.8807 0001576  66.8426  44.9696 15.12035310 39485
1 44272U 19029AP  20040.25001157 -.00010792  00000-0 -60275-3 0  9991
2 44272  52.9971  76.3696 0001652  64.1629  63.1938 15.12138896 39537
1 44272U 19029AP  20040.91667824 +.00180733 +00000-0 +10139-1 0  9996
2 44272 052.9973 073.3452 0001617 063.7674 094.7401 15.12082610001763
1 44272U 19029AP  20041.50001157  .00041828  00000-0  24038-2 0  9998
2 44272  52.9976  70.7013 0001800  56.6361  39.1198 15.12111800 39714
1 44272U 19029AP  20041.58334491 +.00025041 +00000-0 +14488-2 0  9993
2 44272 052.9975 070.3231 0001800 055.7141 133.9301 15.12124072001811
1 44272U 19029AP  20041.91667824 +.00210133 +00000-0 +11737-1 0  9990
2 44272 052.9978 068.8096 0001713 062.9021 142.3251 15.12082518001754
1 44272U 19029AP  20042.25001157 -.00028298  00000-0 -16117-2 0  9998
2 44272  52.9980  67.2988 0001797  60.4096 160.3799 15.12149404 39832
1 44272U 19029AP  20042.58334491 +.00018395 +00000-0 +10695-2 0  9994
2 44272 052.9981 065.7876 0001859 055.6240 180.7488 15.12134255001814
1 44272U 19029AP  20042.91667824  .00121055  00000-0  68501-2 0  9997
2 44272  52.9984  64.2741 0001757  62.8368 189.1250 15.12102168 39932
1 44272U 19029AP  20043.00001157  .00315899  00000-0  17383-1 0  9991
2 44272  52.9985  63.8960 0001812  67.5962 278.2636 15.12065896 39940
1 44272U 19029AP  20043.58334491  .00000175  00000-0  27169-4 0  9998
2 44272  52.9986  61.2523 0001777  53.0802 229.9931 15.12115106 40034
1 44272U 19029AP  20043.91667824 +.00151736 +00000-0 +85528-2 0  9995
2 44272 052.9990 059.7390 0001674 061.8668 236.7687 15.12069860001762
1 44272U 19029AP  20044.58334491 +.00023178 +00000-0 +13429-2 0  9999
2 44272 052.9991 056.7173 0001790 053.6363 276.0887 15.12115759001767
1 44272U 19029AP  20044.91667824  .00422942  00000-0  22946-1 0  9990
2 44272  52.9993  55.2043 0001714  66.8763 278.4216 15.12021135 40236
1 44272U 19029AP  20045.25001157 -.00027771  00000-0 -15822-2 0  9998
2 44272  52.9994  53.6941 0001787  57.1035 303.7302 15.12128826 40289
1 44272U 19029AP  20045.58334491 -.00017293 +00000-0 -97733-3 0  9994
2 44272 052.9992 052.1826 0001800 053.8292 322.5585 15.12128029001865
1 44272U 19029AP  20045.91668981  .00155030  00000-0  87321-2 0  9996
2 44272  52.9994  50.6696 0001643  63.5458 328.4686 15.12078055 40382
1 44272U 19029AP  20046.25001157 -.00027924  00000-0 -15897-2 0  9991
2 44272  52.9994  49.1597 0001708  55.4059 352.1191 15.12159069 40430
1 44272U 19029AP  20046.58335648 -.00015089 +00000-0 -84959-3 0  9997
2 44272 052.9991 047.6478 0001718 052.9502 010.2275 15.12159271001767
1 44272U 19029AP  20046.91667824  .00141069  00000-0  79562-2 0  9997
2 44272  52.9991  46.1349 0001591  62.8790  15.8403 15.12107886 40533
1 44272U 19029AP  20047.25001157 -.00023359  00000-0 -13274-2 0  9997
2 44272  52.9990  44.6251 0001656  53.8537  40.4394 15.12126317 40586
1 44272U 19029AP  20047.58334491 -.00016318 +00000-0 -92112-3 0  9999
2 44272 052.9987 043.1131 0001664 051.6046 058.2407 15.12130155001767
1 44272U 19029AP  20047.66667824 +.00113020 +00000-0 +64032-2 0  9992
2 44272 052.9988 042.7347 0001609 055.2650 148.4736 15.12105427001774
1 44272U 19029AP  20047.91667824  .00384178  00000-0  20952-1 0  9996
2 44272  52.9987  41.6003 0001527  64.3997  61.0201 15.12033324 40691
1 44272U 19029AP  20048.16667824 -.00035173  00000-0 -20102-2 0  9992
2 44272  52.9987  40.4679 0001686  55.6553 351.4167 15.12135558 40727
1 44272U 19029AP  20048.58334491 -.00015107 +00000-0 -85126-3 0  9992
2 44272 052.9985 038.5783 0001738 052.5988 103.9180 15.12132572001764
1 44272U 19029AP  20048.83334491  .00240801  00000-0  13399-1 0  9990
2 44272  52.9985  37.4434 0001609  60.8730  17.3317 15.12057167 40825
1 44272U 19029AP  20049.33334491  .00027737  00000-0  16031-2 0  9994
2 44272  52.9987  35.1779 0001898  52.9539 228.5818 15.12106792 40903
1 44272U 19029AP  20049.91667824 +.00277165 +00000-0 +15337-1 0  9996
2 44272 052.9986 032.5304 0001774 062.3702 156.3986 15.12066589001817
1 44272U 19029AP  20050.25001157 -.00003773  00000-0 -19945-3 0  9991
2 44272  52.9987  31.0204 0001989  53.7795 180.5529 15.12125596 41040
1 44272U 19029AP  20050.58334491 -.00036638 +00000-0 -20942-2 0  9991
2 44272 052.9990 029.5079 0001937 053.2505 196.6432 15.12149672001805
1 44272U 19029AP  20050.73578454 -.00002493  00000-0 -12606-3 0  9998
2 44272  53.0021  28.8179 0001510  58.7318 301.3821 15.12108479 41119
1 44272U 19029AP  20050.86797732 -.00002423 +00000-0 -12201-3 0  9998
2 44272 053.0023 028.2186 0001990 052.7537 307.3635 15.12105800040205
1 44272U 19029AP  20051.25001157  .00010403  00000-0  61299-3 0  9997
2 44272  52.9994  26.4852 0002118  53.9438 227.1092 15.12130228 41193
1 44272U 19029AP  20051.58334491 -.00034412 +00000-0 -19649-2 0  9992
2 44272 052.9996 024.9726 0002044 053.9768 242.6446 15.12156945001759
1 44272U 19029AP  20051.72722717 -.00004275  00000-0 -22859-3 0  9992
2 44272  53.0023  24.3221 0001325  80.8131 279.3010 15.12080954 41260
1 44272U 19029AP  20051.91667824  .00036571  00000-0  21041-2 0  9993
2 44272  53.0000  23.4600 0002025  60.1392 252.0678 15.12132753 41290
1 44272U 19029AP  20052.58334491 -.00020442  00000-0 -11579-2 0  9995
2 44272  53.0004  20.4374 0002141  55.7788 287.5960 15.12159921 41391
1 44272U 19029AP  20052.91686030 +.00003639 +00000-0 +22547-3 0  9996
2 44272 053.0019 018.9255 0002051 070.7675 289.3537 15.12173838040515
1 44272U 19029AP  20053.58334491 -.00033576 +00000-0 -19177-2 0  9990
2 44272 053.0011 015.9024 0002088 055.3805 334.7076 15.12134283001771
1 44272U 19029AP  20053.84224917 +.00000129 +00000-0 +24527-4 0  9993
2 44272 053.0015 014.7297 0001971 093.2941 266.8275 15.12086320040650
1 44272U 19029AP  20053.91667824  .00066231  00000-0  37833-2 0  9997
2 44272  53.0013  14.3904 0002039  61.0333 344.6142 15.12111990 41597
1 44272U 19029AP  20054.25001157  .00037348  00000-0  21497-2 0  9992
2 44272  53.0014  12.8805 0002214  55.3183   5.8975 15.12108055 41649
1 44272U 19029AP  20054.58334491 -.00013482 +00000-0 -75767-3 0  9993
2 44272 053.0015 011.3677 0002108 057.7569 019.0140 15.12132854001761
1 44272U 19029AP  20054.89974316 -.00000489 +00000-0 -10975-4 0  9997
2 44272 053.0018 009.9342 0001948 067.5364 292.5833 15.12129375040819
1 44272U 19029AP  20054.91668981  .00006183  00000-0  37147-3 0  9992
2 44272  53.0017   9.8559 0002094  61.6497  30.7452 15.12130579 41742
1 44272U 19029AP  20055.23022009 -.00000898 +00000-0 -34422-4 0  9996
2 44272 053.0017 008.4358 0001961 062.4467 297.6722 15.12127966040864
